NORAD_CAT_ID,OBJECT_NAME,OBJECT_TYPE,EPOCH,MEAN_MOTION,ECCENTRICITY,INCLINATION,RA_OF_ASC_NODE,ARG_OF_PERICENTER,MEAN_ANOMALY,BSTAR,MEAN_MOTION_DOT,MEAN_MOTION_DDOT,TLE_LINE0,TLE_LINE1,TLE_LINE2,SEMIMAJOR_AXIS,PERIOD,APOGEE,PERIGEE,DECAYED
49428.0,STARLINK-3121,PAYLOAD,2023-12-24 21:48:40,15.08857646,0.0001493,53.2163,246.3269,89.6493,270.4671,0.00036815,5.579e-05,0.0,0 STARLINK-3121,1 49428U 21104W   23358.90880504  .00005579  00000-0  36815-3 0  9992,2 49428  53.2163 246.3269 0001493  89.6493 270.4671 15.08857646116990,6917.826,95.436,540.724,538.659,0.0
49428.0,STARLINK-3121,PAYLOAD,2023-12-24 23:24:03,15.08861013,0.0001548,53.2158,246.0295,87.9903,272.1266,0.00059065,9.13e-05,0.0,0 STARLINK-3121,1 49428U 21104W   23358.97504504  .00009130  00000-0  59065-3 0  9991,2 49428  53.2158 246.0295 0001548  87.9903 272.1266 15.08861013118071,6917.816,95.436,540.752,538.61,0.0
49428.0,STARLINK-3121,PAYLOAD,2023-12-25 20:04:04,15.08849014,0.000146,53.216,242.1637,98.2641,261.8517,0.00023827,3.507e-05,0.0,0 STARLINK-3121,1 49428U 21104W   23359.83616736  .00003507  00000-0  23827-3 0  9997,2 49428  53.2160 242.1637 0001460  98.2641 261.8517 15.08849014118204,6917.853,95.437,540.728,538.708,0.0
49428.0,STARLINK-3121,PAYLOAD,2023-12-25 21:39:27,15.08852058,0.0001577,53.2161,241.8645,101.2879,258.829,0.00031832,4.783e-05,0.0,0 STARLINK-3121,1 49428U 21104W   23359.90240607  .00004783  00000-0  31832-3 0  9997,2 49428  53.2161 241.8645 0001577 101.2879 258.8290 15.08852058117145,6917.844,95.437,540.799,538.618,0.0
49428.0,STARLINK-3121,PAYLOAD,2023-12-26 15:08:42,15.08835919,0.0001542,53.2155,238.5937,92.4194,267.6975,0.0006947,0.00010784,0.0,0 STARLINK-3121,1 49428U 21104W   23360.63105040  .00010784  00000-0  69470-3 0  9997,2 49428  53.2155 238.5937 0001542  92.4194 267.6975 15.08835919117255,6917.893,95.438,540.825,538.691,0.0
49428.0,STARLINK-3121,PAYLOAD,2023-12-26 19:54:52,15.08835809,0.0001563,53.2153,237.7024,102.4254,257.6913,9.5592e-05,1.234e-05,0.0,0 STARLINK-3121,1 49428U 21104W   23360.82977139  .00001234  00000-0  95592-4 0  9999,2 49428  53.2153 237.7024 0001563 102.4254 257.6913 15.08835809118354,6917.893,95.438,540.839,538.677,0.0
49428.0,STARLINK-3121,PAYLOAD,2023-12-27 02:16:24,15.08840411,0.000166,53.2148,236.5125,109.7639,250.3533,2.902e-05,1.74e-06,0.0,0 STARLINK-3121,1 49428U 21104W   23361.09472971  .00000174  00000-0  29020-4 0  9998,2 49428  53.2148 236.5125 0001660 109.7639 250.3533 15.08840411117321,6917.879,95.438,540.893,538.596,0.0
49428.0,STARLINK-3121,PAYLOAD,2023-12-27 21:21:02,15.08838042,0.0001611,53.2145,232.944,108.0273,252.0895,0.00013431,1.85e-05,0.0,0 STARLINK-3121,1 49428U 21104W   23361.88961310  .00001850  00000-0  13431-3 0  9995,2 49428  53.2145 232.9440 0001611 108.0273 252.0895 15.08838042117440,6917.886,95.438,540.866,538.637,0.0
49428.0,STARLINK-3121,PAYLOAD,2023-12-28 00:31:49,15.08828717,0.0001655,53.2149,232.349,103.7878,256.3298,0.00061879,9.571e-05,0.0,0 STARLINK-3121,1 49428U 21104W   23362.02210016  .00009571  00000-0  61879-3 0  9999,2 49428  53.2149 232.3490 0001655 103.7878 256.3298 15.08828717118537,6917.915,95.438,540.925,538.635,0.0
49428.0,STARLINK-3121,PAYLOAD,2023-12-28 14:50:17,15.08840213,0.0001522,53.2143,229.6729,100.9302,259.1862,0.00011909,1.608e-05,0.0,0 STARLINK-3121,1 49428U 21104W   23362.61825315  .00001608  00000-0  11909-3 0  9990,2 49428  53.2143 229.6729 0001522 100.9302 259.1862 15.08840213117553,6917.88,95.438,540.798,538.692,0.0
49428.0,STARLINK-3121,PAYLOAD,2023-12-28 21:11:49,15.08840843,0.0001507,53.2148,228.4834,99.5386,260.5777,0.00012084,1.636e-05,0.0,0 STARLINK-3121,1 49428U 21104W   23362.88321322  .00001636  00000-0  12084-3 0  9994,2 49428  53.2148 228.4834 0001507  99.5386 260.5777 15.08840843117594,6917.878,95.438,540.785,538.7,0.0
49428.0,STARLINK-3121,PAYLOAD,2023-12-29 00:22:35,15.08842532,0.000146,53.2146,227.8887,93.9787,266.1372,0.00013545,1.869e-05,0.0,0 STARLINK-3121,1 49428U 21104W   23363.01569258  .00001869  00000-0  13545-3 0  9993,2 49428  53.2146 227.8887 0001460  93.9787 266.1372 15.08842532117617,6917.873,95.437,540.748,538.728,0.0
49428.0,STARLINK-3121,PAYLOAD,2023-12-29 19:27:13,15.08843749,0.0001455,53.2147,224.3213,84.6137,275.5022,8.7675e-05,1.108e-05,0.0,0 STARLINK-3121,1 49428U 21104W   23363.81057281  .00001108  00000-0  87675-4 0  9991,2 49428  53.2147 224.3213 0001455  84.6137 275.5022 15.08843749118802,6917.869,95.437,540.74,538.727,0.0
49428.0,STARLINK-3121,PAYLOAD,2023-12-29 22:37:59,15.08846201,0.0001495,53.2148,223.7267,83.6219,276.4944,0.00011852,1.599e-05,0.0,0 STARLINK-3121,1 49428U 21104W   23363.94305133  .00001599  00000-0  11852-3 0  9994,2 49428  53.2148 223.7267 0001495  83.6219 276.4944 15.08846201117751,6917.861,95.437,540.761,538.692,0.0
49428.0,STARLINK-3121,PAYLOAD,2023-12-30 14:31:51,15.08840618,0.0001422,53.2146,220.7536,77.8427,282.2725,6.3477e-05,7.22e-06,0.0,0 STARLINK-3121,1 49428U 21104W   23364.60545435  .00000722  00000-0  63477-4 0  9997,2 49428  53.2146 220.7536 0001422  77.8427 282.2725 15.08840618117850,6917.878,95.438,540.727,538.76,0.0
49428.0,STARLINK-3121,PAYLOAD,2023-12-30 19:18:00,15.08841909,0.0001338,53.2157,219.8604,87.0228,273.0918,7.0878e-05,8.4e-06,0.0,0 STARLINK-3121,1 49428U 21104W   23364.80417454  .00000840  00000-0  70878-4 0  9992,2 49428  53.2157 219.8604 0001338  87.0228 273.0918 15.08841909118953,6917.875,95.437,540.665,538.814,0.0
49428.0,STARLINK-3121,PAYLOAD,2023-12-30 20:53:23,15.08841395,0.0001453,53.2158,219.5633,85.6825,274.4333,6.1215e-05,6.86e-06,0.0,0 STARLINK-3121,1 49428U 21104W   23364.87041448  .00000686  00000-0  61215-4 0  9998,2 49428  53.2158 219.5633 0001453  85.6825 274.4333 15.08841395117895,6917.876,95.437,540.746,538.736,0.0
49428.0,STARLINK-3121,PAYLOAD,2023-12-31 20:44:10,15.08843164,0.0001415,53.2155,215.1023,94.7649,265.3504,4.6558e-05,4.53e-06,0.0,0 STARLINK-3121,1 49428U 21104W   23365.86401178  .00000453  00000-0  46558-4 0  9993,2 49428  53.2155 215.1023 0001415  94.7649 265.3504 15.08843164118043,6917.871,95.437,540.715,538.757,0.0
49428.0,STARLINK-3121,PAYLOAD,2024-01-01 18:59:34,15.08838229,0.0001419,53.2154,210.9384,95.1653,264.9501,3.6517e-05,2.93e-06,0.0,0 STARLINK-3121,1 49428U 21104W   24001.79137529  .00000293  00000-0  36517-4 0  9995,2 49428  53.2154 210.9384 0001419  95.1653 264.9501 15.08838229119251,6917.886,95.438,540.732,538.769,0.0
49428.0,STARLINK-3121,PAYLOAD,2024-01-01 23:45:44,15.08838659,0.000142,53.2154,210.0464,94.6666,265.4488,3.6909e-05,2.99e-06,0.0,0 STARLINK-3121,1 49428U 21104W   24001.99009513  .00000299  00000-0  36909-4 0  9999,2 49428  53.2154 210.0464 0001420  94.6666 265.4488 15.08838659118213,6917.884,95.438,540.732,538.767,0.0
49428.0,STARLINK-3121,PAYLOAD,2024-01-02 22:01:07,15.0884472,0.0001422,53.2155,205.8834,87.527,272.5885,6.9364e-05,8.16e-06,0.0,0 STARLINK-3121,1 49428U 21104W   24002.91745009  .00000816  00000-0  69364-4 0  9995,2 49428  53.2155 205.8834 0001422  87.5270 272.5885 15.08844720118352,6917.866,95.437,540.715,538.747,0.0
49428.0,STARLINK-3121,PAYLOAD,2024-01-03 13:54:59,15.08836196,0.0001469,53.2156,202.9099,82.794,277.3219,4.3637e-05,4.07e-06,0.0,0 STARLINK-3121,1 49428U 21104W   24003.57985695  .00000407  00000-0  43637-4 0  9996,2 49428  53.2156 202.9099 0001469  82.7940 277.3219 15.08836196118459,6917.892,95.438,540.773,538.741,0.0
49428.0,STARLINK-3121,PAYLOAD,2024-01-03 18:41:09,15.08835891,0.0001421,53.2154,202.018,86.1194,273.996,3.0664e-05,2e-06,0.0,0 STARLINK-3121,1 49428U 21104W   24003.77857757  .00000200  00000-0  30664-4 0  9992,2 49428  53.2154 202.0180 0001421  86.1194 273.9960 15.08835891119554,6917.893,95.438,540.741,538.775,0.0
49428.0,STARLINK-3121,PAYLOAD,2024-01-04 20:07:19,15.08837911,0.0001452,53.2155,197.2596,84.6631,275.4527,1.1019e-05,-1.13e-06,0.0,0 STARLINK-3121,1 49428U 21104W   24004.83841852 -.00000113  00000-0  11019-4 0  9996,2 49428  53.2155 197.2596 0001452  84.6631 275.4527 15.08837911119713,6917.887,95.438,540.756,538.747,0.0
49428.0,STARLINK-3121,PAYLOAD,2024-01-04 21:42:42,15.08838191,0.0001456,53.2155,196.9621,84.6376,275.4782,1.2156e-05,-9.5e-07,0.0,0 STARLINK-3121,1 49428U 21104W   24004.90465832 -.00000095  00000-0  12156-4 0  9996,2 49428  53.2155 196.9621 0001456  84.6376 275.4782 15.08838191118654,6917.886,95.438,540.758,538.744,0.0
49428.0,STARLINK-3121,PAYLOAD,2024-01-05 12:01:10,15.08836156,0.0001425,53.2155,194.2855,88.3497,271.7658,5.9051e-05,6.52e-06,0.0,0 STARLINK-3121,1 49428U 21104W   24005.50081915  .00000652  00000-0  59051-4 0  9992,2 49428  53.2155 194.2855 0001425  88.3497 271.7658 15.08836156118745,6917.892,95.438,540.743,538.771,0.0
49428.0,STARLINK-3121,PAYLOAD,2024-01-05 19:58:06,15.08837541,0.0001429,53.2155,192.799,86.6594,273.4561,6.6248e-05,7.66e-06,0.0,0 STARLINK-3121,1 49428U 21104W   24005.83201895  .00000766  00000-0  66248-4 0  9991,2 49428  53.2155 192.7990 0001429  86.6594 273.4561 15.08837541118797,6917.888,95.438,540.741,538.764,0.0
49428.0,STARLINK-3121,PAYLOAD,2024-01-06 18:13:30,15.08841126,0.0001468,53.2158,188.6357,82.5919,277.524,8.1815e-05,1.014e-05,0.0,0 STARLINK-3121,1 49428U 21104W   24006.75937731  .00001014  00000-0  81815-4 0  9992,2 49428  53.2158 188.6357 0001468  82.5919 277.5240 15.08841126120000,6917.877,95.437,540.757,538.726,0.0
49428.0,STARLINK-3121,PAYLOAD,2024-01-07 21:15:03,15.08840174,0.0001412,53.2157,183.5801,87.2462,272.8692,3.6592e-05,2.94e-06,0.0,0 STARLINK-3121,1 49428U 21104W   24007.88545912  .00000294  00000-0  36592-4 0  9994,2 49428  53.2157 183.5801 0001412  87.2462 272.8692 15.08840174119101,6917.88,95.438,540.722,538.768,0.0
49428.0,STARLINK-3121,PAYLOAD,2024-01-08 14:44:17,15.08842509,0.0001369,53.2154,180.3096,89.0986,271.0163,6.5867e-05,7.61e-06,0.0,0 STARLINK-3121,1 49428U 21104W   24008.61409596  .00000761  00000-0  65867-4 0  9999,2 49428  53.2154 180.3096 0001369  89.0986 271.0163 15.08842509119211,6917.873,95.437,540.685,538.791,0.0
